STARLINK-36472          
1 67346U 26003N   26016.91668981 -.01373546  55850-3 -33352-2 0  9995
2 67346  42.9982 167.6442 0001631 270.4255  49.8358 15.95429895  2341
STARLINK-36420          
1 67347U 26003P   26016.91668981 -.01423394  59721-3 -34270-2 0  9994
2 67347  42.9983 167.6347 0001753 272.6424  51.4456 15.95593781  2359
STARLINK-36467          
1 67348U 26003Q   26016.91668981 -.01400313  57916-3 -33836-2 0  9992
2 67348  42.9984 167.6393 0001697 271.3702  51.0268 15.95524010  2350
STARLINK-36457          
1 67349U 26003R   26016.91668981 -.01460287  62652-3 -34990-2 0  9994
2 67349  42.9984 167.6292 0001662 271.0031  55.3146 15.95688008  2353
STARLINK-36475          
1 67350U 26003S   26016.91668981 -.01498264  65737-3 -35735-2 0  9997
2 67350  42.9984 167.6236 0001729 274.9238  53.5233 15.95778338  2340
STARLINK-36478          
1 67351U 26003T   26016.91668981  .01329659  88529-3  31056-2 0  9993
2 67351  42.9982 167.6196 0002302 283.2111  46.8646 15.96326555  2349
STARLINK-36479          
1 67352U 26003U   26016.91668981 -.01534722  68803-3 -36347-2 0  9996
2 67352  42.9985 167.6156 0001768 274.3622  57.2775 15.95913608  2352
STARLINK-36474          
1 67353U 26003V   26016.91668981 -.01567358  71577-3 -36972-2 0  9994
2 67353  42.9983 167.6110 0001616 271.0680  62.5653 15.95992038  2359
STARLINK-36448          
1 67354U 26003W   26016.91668981 -.01624664  76646-3 -37885-2 0  9995
2 67354  42.9985 167.5968 0001635 273.0736  66.0236 15.96211299  2357
STARLINK-36477          
1 67355U 26003X   26016.91668981 -.01596185  74084-3 -37488-2 0  9995
2 67355  42.9984 167.6053 0001756 273.7250  62.0944 15.96075953  2341
STARLINK-36429          
1 67356U 26003Y   26016.91668981 -.01601345  74570-3 -37492-2 0  9996
2 67356  42.9986 167.6009 0001766 272.7110  64.8013 15.96133969  2349
STARLINK-36456          
1 67357U 26003Z   26016.91668981 -.01625902  76798-3 -37799-2 0  9996
2 67357  42.9984 167.5916 0001649 273.1912  67.8996 15.96266988  2351
STARLINK-36466          
1 67358U 26003AA  26016.91668981 -.01638939  77999-3 -37951-2 0  9995
2 67358  42.9984 167.5858 0001594 271.2729  71.9923 15.96341653  2350
STARLINK-36499          
1 67359U 26003AB  26016.91668981 -.01655660  79527-3 -38208-2 0  9991
2 67359  42.9984 167.5815 0001773 274.5154  70.4579 15.96405495  2357
STARLINK-36469          
1 67360U 26003AC  26016.91668981 -.01663578  80291-3 -38242-2 0  9998
2 67360  42.9984 167.5761 0001742 275.8961  71.2118 15.96477327  2356
STARLINK-35306          
1 67361U 26003AD  26016.91668981 -.01668233  80765-3 -38204-2 0  9996
2 67361  42.9981 167.5720 0001689 275.6124  73.1136 15.96547360  2297
