[{"OBJECT_NAME":"STARLINK-36472","OBJECT_ID":"2026-003N","EPOCH":"2026-01-16T22:00:01.999584","MEAN_MOTION":15.95429895,"ECCENTRICITY":0.00016315,"INCLINATION":42.9982,"RA_OF_ASC_NODE":167.6442,"ARG_OF_PERICENTER":270.4255,"MEAN_ANOMALY":49.8358,"EPHEMERIS_TYPE":0,"CLASSIFICATION_TYPE":"U","NORAD_CAT_ID":67346,"ELEMENT_SET_NO":999,"REV_AT_EPOCH":234,"BSTAR":-0.0033351769,"MEAN_MOTION_DOT":-0.01373546,"MEAN_MOTION_DDOT":0.00055850227},{"OBJECT_NAME":"STARLINK-36420","OBJECT_ID":"2026-003P","EPOCH":"2026-01-16T22:00:01.999584","MEAN_MOTION":15.95593781,"ECCENTRICITY":0.0001753,"INCLINATION":42.9983,"RA_OF_ASC_NODE":167.6347,"ARG_OF_PERICENTER":272.6424,"MEAN_ANOMALY":51.4456,"EPHEMERIS_TYPE":0,"CLASSIFICATION_TYPE":"U","NORAD_CAT_ID":67347,"ELEMENT_SET_NO":999,"REV_AT_EPOCH":235,"BSTAR":-0.003427009,"MEAN_MOTION_DOT":-0.01423394,"MEAN_MOTION_DDOT":0.00059721052},{"OBJECT_NAME":"STARLINK-36467","OBJECT_ID":"2026-003Q","EPOCH":"2026-01-16T22:00:01.999584","MEAN_MOTION":15.9552401,"ECCENTRICITY":0.00016971,"INCLINATION":42.9984,"RA_OF_ASC_NODE":167.6393,"ARG_OF_PERICENTER":271.3702,"MEAN_ANOMALY":51.0268,"EPHEMERIS_TYPE":0,"CLASSIFICATION_TYPE":"U","NORAD_CAT_ID":67348,"ELEMENT_SET_NO":999,"REV_AT_EPOCH":235,"BSTAR":-0.0033835995,"MEAN_MOTION_DOT":-0.01400313,"MEAN_MOTION_DDOT":0.00057916331},{"OBJECT_NAME":"STARLINK-36457","OBJECT_ID":"2026-003R","EPOCH":"2026-01-16T22:00:01.999584","MEAN_MOTION":15.95688008,"ECCENTRICITY":0.00016622,"INCLINATION":42.9984,"RA_OF_ASC_NODE":167.6292,"ARG_OF_PERICENTER":271.0031,"MEAN_ANOMALY":55.3146,"EPHEMERIS_TYPE":0,"CLASSIFICATION_TYPE":"U","NORAD_CAT_ID":67349,"ELEMENT_SET_NO":999,"REV_AT_EPOCH":235,"BSTAR":-0.0034990269,"MEAN_MOTION_DOT":-0.01460287,"MEAN_MOTION_DDOT":0.00062651893},{"OBJECT_NAME":"STARLINK-36475","OBJECT_ID":"2026-003S","EPOCH":"2026-01-16T22:00:01.999584","MEAN_MOTION":15.95778338,"ECCENTRICITY":0.00017295,"INCLINATION":42.9984,"RA_OF_ASC_NODE":167.6236,"ARG_OF_PERICENTER":274.9238,"MEAN_ANOMALY":53.5233,"EPHEMERIS_TYPE":0,"CLASSIFICATION_TYPE":"U","NORAD_CAT_ID":67350,"ELEMENT_SET_NO":999,"REV_AT_EPOCH":234,"BSTAR":-0.0035735239,"MEAN_MOTION_DOT":-0.01498264,"MEAN_MOTION_DDOT":0.00065737083},{"OBJECT_NAME":"STARLINK-36478","OBJECT_ID":"2026-003T","EPOCH":"2026-01-16T22:00:01.999584","MEAN_MOTION":15.96326555,"ECCENTRICITY":0.00023022,"INCLINATION":42.9982,"RA_OF_ASC_NODE":167.6196,"ARG_OF_PERICENTER":283.2111,"MEAN_ANOMALY":46.8646,"EPHEMERIS_TYPE":0,"CLASSIFICATION_TYPE":"U","NORAD_CAT_ID":67351,"ELEMENT_SET_NO":999,"REV_AT_EPOCH":234,"BSTAR":0.0031055604,"MEAN_MOTION_DOT":0.01329659,"MEAN_MOTION_DDOT":0.00088529018},{"OBJECT_NAME":"STARLINK-36479","OBJECT_ID":"2026-003U","EPOCH":"2026-01-16T22:00:01.999584","MEAN_MOTION":15.95913608,"ECCENTRICITY":0.00017684,"INCLINATION":42.9985,"RA_OF_ASC_NODE":167.6156,"ARG_OF_PERICENTER":274.3622,"MEAN_ANOMALY":57.2775,"EPHEMERIS_TYPE":0,"CLASSIFICATION_TYPE":"U","NORAD_CAT_ID":67352,"ELEMENT_SET_NO":999,"REV_AT_EPOCH":235,"BSTAR":-0.003634684,"MEAN_MOTION_DOT":-0.01534722,"MEAN_MOTION_DDOT":0.00068802618},{"OBJECT_NAME":"STARLINK-36474","OBJECT_ID":"2026-003V","EPOCH":"2026-01-16T22:00:01.999584","MEAN_MOTION":15.95992038,"ECCENTRICITY":0.00016166,"INCLINATION":42.9983,"RA_OF_ASC_NODE":167.611,"ARG_OF_PERICENTER":271.068,"MEAN_ANOMALY":62.5653,"EPHEMERIS_TYPE":0,"CLASSIFICATION_TYPE":"U","NORAD_CAT_ID":67353,"ELEMENT_SET_NO":999,"REV_AT_EPOCH":235,"BSTAR":-0.0036972228,"MEAN_MOTION_DOT":-0.01567358,"MEAN_MOTION_DDOT":0.00071576582},{"OBJECT_NAME":"STARLINK-36448","OBJECT_ID":"2026-003W","EPOCH":"2026-01-16T22:00:01.999584","MEAN_MOTION":15.96211299,"ECCENTRICITY":0.00016354,"INCLINATION":42.9985,"RA_OF_ASC_NODE":167.5968,"ARG_OF_PERICENTER":273.0736,"MEAN_ANOMALY":66.0236,"EPHEMERIS_TYPE":0,"CLASSIFICATION_TYPE":"U","NORAD_CAT_ID":67354,"ELEMENT_SET_NO":999,"REV_AT_EPOCH":235,"BSTAR":-0.0037885067,"MEAN_MOTION_DOT":-0.01624664,"MEAN_MOTION_DDOT":0.00076646199},{"OBJECT_NAME":"STARLINK-36477","OBJECT_ID":"2026-003X","EPOCH":"2026-01-16T22:00:01.999584","MEAN_MOTION":15.96075953,"ECCENTRICITY":0.00017565,"INCLINATION":42.9984,"RA_OF_ASC_NODE":167.6053,"ARG_OF_PERICENTER":273.725,"MEAN_ANOMALY":62.0944,"EPHEMERIS_TYPE":0,"CLASSIFICATION_TYPE":"U","NORAD_CAT_ID":67355,"ELEMENT_SET_NO":999,"REV_AT_EPOCH":234,"BSTAR":-0.0037487965,"MEAN_MOTION_DOT":-0.01596185,"MEAN_MOTION_DDOT":0.00074083916},{"OBJECT_NAME":"STARLINK-36429","OBJECT_ID":"2026-003Y","EPOCH":"2026-01-16T22:00:01.999584","MEAN_MOTION":15.96133969,"ECCENTRICITY":0.00017661,"INCLINATION":42.9986,"RA_OF_ASC_NODE":167.6009,"ARG_OF_PERICENTER":272.711,"MEAN_ANOMALY":64.8013,"EPHEMERIS_TYPE":0,"CLASSIFICATION_TYPE":"U","NORAD_CAT_ID":67356,"ELEMENT_SET_NO":999,"REV_AT_EPOCH":234,"BSTAR":-0.0037491629,"MEAN_MOTION_DOT":-0.01601345,"MEAN_MOTION_DDOT":0.00074570407},{"OBJECT_NAME":"STARLINK-36456","OBJECT_ID":"2026-003Z","EPOCH":"2026-01-16T22:00:01.999584","MEAN_MOTION":15.96266988,"ECCENTRICITY":0.00016495,"INCLINATION":42.9984,"RA_OF_ASC_NODE":167.5916,"ARG_OF_PERICENTER":273.1912,"MEAN_ANOMALY":67.8996,"EPHEMERIS_TYPE":0,"CLASSIFICATION_TYPE":"U","NORAD_CAT_ID":67357,"ELEMENT_SET_NO":999,"REV_AT_EPOCH":235,"BSTAR":-0.0037798856,"MEAN_MOTION_DOT":-0.01625902,"MEAN_MOTION_DDOT":0.00076798087},{"OBJECT_NAME":"STARLINK-36466","OBJECT_ID":"2026-003AA","EPOCH":"2026-01-16T22:00:01.999584","MEAN_MOTION":15.96341653,"ECCENTRICITY":0.00015941,"INCLINATION":42.9984,"RA_OF_ASC_NODE":167.5858,"ARG_OF_PERICENTER":271.2729,"MEAN_ANOMALY":71.9923,"EPHEMERIS_TYPE":0,"CLASSIFICATION_TYPE":"U","NORAD_CAT_ID":67358,"ELEMENT_SET_NO":999,"REV_AT_EPOCH":235,"BSTAR":-0.0037950749,"MEAN_MOTION_DOT":-0.01638939,"MEAN_MOTION_DDOT":0.00077998523},{"OBJECT_NAME":"STARLINK-36499","OBJECT_ID":"2026-003AB","EPOCH":"2026-01-16T22:00:01.999584","MEAN_MOTION":15.96405495,"ECCENTRICITY":0.00017734,"INCLINATION":42.9984,"RA_OF_ASC_NODE":167.5815,"ARG_OF_PERICENTER":274.5154,"MEAN_ANOMALY":70.4579,"EPHEMERIS_TYPE":0,"CLASSIFICATION_TYPE":"U","NORAD_CAT_ID":67359,"ELEMENT_SET_NO":999,"REV_AT_EPOCH":235,"BSTAR":-0.0038207835,"MEAN_MOTION_DOT":-0.0165566,"MEAN_MOTION_DDOT":0.00079526774},{"OBJECT_NAME":"STARLINK-36469","OBJECT_ID":"2026-003AC","EPOCH":"2026-01-16T22:00:01.999584","MEAN_MOTION":15.96477327,"ECCENTRICITY":0.00017423,"INCLINATION":42.9984,"RA_OF_ASC_NODE":167.5761,"ARG_OF_PERICENTER":275.8961,"MEAN_ANOMALY":71.2118,"EPHEMERIS_TYPE":0,"CLASSIFICATION_TYPE":"U","NORAD_CAT_ID":67360,"ELEMENT_SET_NO":999,"REV_AT_EPOCH":235,"BSTAR":-0.003824219,"MEAN_MOTION_DOT":-0.01663578,"MEAN_MOTION_DDOT":0.00080290627},{"OBJECT_NAME":"STARLINK-35306","OBJECT_ID":"2026-003AD","EPOCH":"2026-01-16T22:00:01.999584","MEAN_MOTION":15.9654736,"ECCENTRICITY":0.00016892,"INCLINATION":42.9981,"RA_OF_ASC_NODE":167.572,"ARG_OF_PERICENTER":275.6124,"MEAN_ANOMALY":73.1136,"EPHEMERIS_TYPE":0,"CLASSIFICATION_TYPE":"U","NORAD_CAT_ID":67361,"ELEMENT_SET_NO":999,"REV_AT_EPOCH":229,"BSTAR":-0.0038203785,"MEAN_MOTION_DOT":-0.01668233,"MEAN_MOTION_DDOT":0.00080765023}]
